{"fetched_at":"2026-07-17T17:37:58.322Z","source":"https://celestrak.org/NORAD/elements/gp.php?GROUP=spire&FORMAT=JSON","constellation":"spire","records":[{"OBJECT_NAME":"LEMUR-2-LEIA-PHILIP","OBJECT_ID":"2025-052AN","EPOCH":"2026-07-17T03:23:34.368864","CLASSIFICATION_TYPE":"U","MEAN_MOTION":14.97392123,"ECCENTRICITY":0.00050814,"INCLINATION":97.6799,"RA_OF_ASC_NODE":89.5842,"ARG_OF_PERICENTER":115.4351,"MEAN_ANOMALY":244.7397,"EPHEMERIS_TYPE":0,"NORAD_CAT_ID":63246,"ELEMENT_SET_NO":999,"REV_AT_EPOCH":7315,"BSTAR":0.00000463645,"MEAN_MOTION_DOT":-4e-8,"MEAN_MOTION_DDOT":0},{"OBJECT_NAME":"LEMUR-2-LIA-MARTIN","OBJECT_ID":"2025-052AQ","EPOCH":"2026-07-17T03:14:31.836480","CLASSIFICATION_TYPE":"U","MEAN_MOTION":14.980375,"ECCENTRICITY":0.00051892,"INCLINATION":97.6861,"RA_OF_ASC_NODE":90.1001,"ARG_OF_PERICENTER":85.6997,"MEAN_ANOMALY":274.4819,"EPHEMERIS_TYPE":0,"NORAD_CAT_ID":63248,"ELEMENT_SET_NO":999,"REV_AT_EPOCH":7316,"BSTAR":0.00013774583,"MEAN_MOTION_DOT":0.0000157,"MEAN_MOTION_DDOT":0},{"OBJECT_NAME":"LEMUR-2-DELOITTE-1","OBJECT_ID":"2025-052BB","EPOCH":"2026-07-17T05:59:15.067680","CLASSIFICATION_TYPE":"U","MEAN_MOTION":14.97792163,"ECCENTRICITY":0.00025313,"INCLINATION":97.6884,"RA_OF_ASC_NODE":90.5425,"ARG_OF_PERICENTER":62.2271,"MEAN_ANOMALY":297.9208,"EPHEMERIS_TYPE":0,"NORAD_CAT_ID":63259,"ELEMENT_SET_NO":999,"REV_AT_EPOCH":7319,"BSTAR":0.00020780413,"MEAN_MOTION_DOT":0.00002382,"MEAN_MOTION_DDOT":0},{"OBJECT_NAME":"LEMUR-2-EMERSONROSE","OBJECT_ID":"2025-052BD","EPOCH":"2026-07-17T04:40:35.468544","CLASSIFICATION_TYPE":"U","MEAN_MOTION":14.99301194,"ECCENTRICITY":0.00026189,"INCLINATION":97.6883,"RA_OF_ASC_NODE":91.1066,"ARG_OF_PERICENTER":57.1007,"MEAN_ANOMALY":303.0468,"EPHEMERIS_TYPE":0,"NORAD_CAT_ID":63261,"ELEMENT_SET_NO":999,"REV_AT_EPOCH":7323,"BSTAR":0.00020040749,"MEAN_MOTION_DOT":0.00002388,"MEAN_MOTION_DDOT":0},{"OBJECT_NAME":"LEMUR-2-MARACHE-FRAN","OBJECT_ID":"2025-052BE","EPOCH":"2026-07-17T03:35:17.540448","CLASSIFICATION_TYPE":"U","MEAN_MOTION":15.00322436,"ECCENTRICITY":0.00054171,"INCLINATION":97.6826,"RA_OF_ASC_NODE":91.4309,"ARG_OF_PERICENTER":244.8247,"MEAN_ANOMALY":115.2415,"EPHEMERIS_TYPE":0,"NORAD_CAT_ID":63262,"ELEMENT_SET_NO":999,"REV_AT_EPOCH":7325,"BSTAR":0.00013620794,"MEAN_MOTION_DOT":0.00001649,"MEAN_MOTION_DDOT":0},{"OBJECT_NAME":"LEMUR-2-THEFALCONER","OBJECT_ID":"2025-052BG","EPOCH":"2026-07-17T03:31:06.720384","CLASSIFICATION_TYPE":"U","MEAN_MOTION":14.97567389,"ECCENTRICITY":0.00004086,"INCLINATION":97.6823,"RA_OF_ASC_NODE":90.0298,"ARG_OF_PERICENTER":256.4392,"MEAN_ANOMALY":103.6785,"EPHEMERIS_TYPE":0,"NORAD_CAT_ID":63264,"ELEMENT_SET_NO":999,"REV_AT_EPOCH":7317,"BSTAR":0.000091548459,"MEAN_MOTION_DOT":0.00001011,"MEAN_MOTION_DDOT":0},{"OBJECT_NAME":"LEMUR-2-UNTITLED-SC","OBJECT_ID":"2025-061A","EPOCH":"2026-07-17T04:03:34.172064","CLASSIFICATION_TYPE":"U","MEAN_MOTION":15.13653035,"ECCENTRICITY":0.00193981,"INCLINATION":97.5658,"RA_OF_ASC_NODE":173.3189,"ARG_OF_PERICENTER":156.4933,"MEAN_ANOMALY":203.7189,"EPHEMERIS_TYPE":0,"NORAD_CAT_ID":63351,"ELEMENT_SET_NO":999,"REV_AT_EPOCH":7212,"BSTAR":0.00009841043,"MEAN_MOTION_DOT":0.00001709,"MEAN_MOTION_DDOT":0},{"OBJECT_NAME":"LEMUR-2-ESPERANZA","OBJECT_ID":"2025-061B","EPOCH":"2026-07-16T21:07:06.052224","CLASSIFICATION_TYPE":"U","MEAN_MOTION":15.13758598,"ECCENTRICITY":0.00189752,"INCLINATION":97.5665,"RA_OF_ASC_NODE":173.1323,"ARG_OF_PERICENTER":156.6868,"MEAN_ANOMALY":203.5228,"EPHEMERIS_TYPE":0,"NORAD_CAT_ID":63352,"ELEMENT_SET_NO":999,"REV_AT_EPOCH":7208,"BSTAR":0.00010079804,"MEAN_MOTION_DOT":0.00001758,"MEAN_MOTION_DDOT":0},{"OBJECT_NAME":"LEMUR-2-KREMPEL-BRO2","OBJECT_ID":"2025-061C","EPOCH":"2026-07-16T23:08:53.884320","CLASSIFICATION_TYPE":"U","MEAN_MOTION":15.14185528,"ECCENTRICITY":0.00201299,"INCLINATION":97.571,"RA_OF_ASC_NODE":173.7874,"ARG_OF_PERICENTER":149.4315,"MEAN_ANOMALY":210.8095,"EPHEMERIS_TYPE":0,"NORAD_CAT_ID":63353,"ELEMENT_SET_NO":999,"REV_AT_EPOCH":7211,"BSTAR":0.00010342611,"MEAN_MOTION_DOT":0.00001828,"MEAN_MOTION_DDOT":0},{"OBJECT_NAME":"LEMUR-2-THERMORAPTOR","OBJECT_ID":"2025-061D","EPOCH":"2026-07-16T21:05:36.426912","CLASSIFICATION_TYPE":"U","MEAN_MOTION":15.14268321,"ECCENTRICITY":0.00199027,"INCLINATION":97.5715,"RA_OF_ASC_NODE":173.7838,"ARG_OF_PERICENTER":148.5683,"MEAN_ANOMALY":211.6742,"EPHEMERIS_TYPE":0,"NORAD_CAT_ID":63354,"ELEMENT_SET_NO":999,"REV_AT_EPOCH":7210,"BSTAR":0.00011743626,"MEAN_MOTION_DOT":0.0000209,"MEAN_MOTION_DDOT":0},{"OBJECT_NAME":"LEMUR-2-NEUROSPICY","OBJECT_ID":"2025-061E","EPOCH":"2026-07-17T05:52:24.367008","CLASSIFICATION_TYPE":"U","MEAN_MOTION":15.14387869,"ECCENTRICITY":0.0017662,"INCLINATION":97.5644,"RA_OF_ASC_NODE":173.7506,"ARG_OF_PERICENTER":150.2079,"MEAN_ANOMALY":210.0162,"EPHEMERIS_TYPE":0,"NORAD_CAT_ID":63355,"ELEMENT_SET_NO":999,"REV_AT_EPOCH":7216,"BSTAR":0.00010217538,"MEAN_MOTION_DOT":0.00001814,"MEAN_MOTION_DDOT":0},{"OBJECT_NAME":"LEMUR-2-TILLINFINITY","OBJECT_ID":"2025-061F","EPOCH":"2026-07-16T20:55:50.273760","CLASSIFICATION_TYPE":"U","MEAN_MOTION":15.14971898,"ECCENTRICITY":0.00192169,"INCLINATION":97.5627,"RA_OF_ASC_NODE":173.6916,"ARG_OF_PERICENTER":140.4251,"MEAN_ANOMALY":219.8388,"EPHEMERIS_TYPE":0,"NORAD_CAT_ID":63356,"ELEMENT_SET_NO":999,"REV_AT_EPOCH":7213,"BSTAR":0.0001199754,"MEAN_MOTION_DOT":0.0000218,"MEAN_MOTION_DDOT":0},{"OBJECT_NAME":"LEMUR-2-KREMPEL-BRO1","OBJECT_ID":"2025-061G","EPOCH":"2026-07-16T21:58:13.196928","CLASSIFICATION_TYPE":"U","MEAN_MOTION":15.14778327,"ECCENTRICITY":0.00198484,"INCLINATION":97.5628,"RA_OF_ASC_NODE":173.6423,"ARG_OF_PERICENTER":141.6214,"MEAN_ANOMALY":218.6435,"EPHEMERIS_TYPE":0,"NORAD_CAT_ID":63357,"ELEMENT_SET_NO":999,"REV_AT_EPOCH":7213,"BSTAR":0.000090145153,"MEAN_MOTION_DOT":0.00001612,"MEAN_MOTION_DDOT":0},{"OBJECT_NAME":"LEMUR-2-LANGER2SPACE","OBJECT_ID":"2025-061H","EPOCH":"2026-07-16T21:09:50.535360","CLASSIFICATION_TYPE":"U","MEAN_MOTION":15.1447176,"ECCENTRICITY":0.00175726,"INCLINATION":97.5633,"RA_OF_ASC_NODE":173.4112,"ARG_OF_PERICENTER":149.6905,"MEAN_ANOMALY":210.5347,"EPHEMERIS_TYPE":0,"NORAD_CAT_ID":63358,"ELEMENT_SET_NO":999,"REV_AT_EPOCH":7211,"BSTAR":0.00011760438,"MEAN_MOTION_DOT":0.00002103,"MEAN_MOTION_DDOT":0},{"OBJECT_NAME":"LEMUR-2-BALTO","OBJECT_ID":"2025-052BH","EPOCH":"2026-07-16T22:24:34.244352","CLASSIFICATION_TYPE":"U","MEAN_MOTION":15.00373082,"ECCENTRICITY":0.00050442,"INCLINATION":97.6925,"RA_OF_ASC_NODE":91.2085,"ARG_OF_PERICENTER":320.2373,"MEAN_ANOMALY":39.848,"EPHEMERIS_TYPE":0,"NORAD_CAT_ID":63395,"ELEMENT_SET_NO":999,"REV_AT_EPOCH":7322,"BSTAR":0.0001988074,"MEAN_MOTION_DOT":0.00002437,"MEAN_MOTION_DDOT":0},{"OBJECT_NAME":"LEMUR-2-KRISH","OBJECT_ID":"2025-135AK","EPOCH":"2026-07-17T07:12:08.996832","CLASSIFICATION_TYPE":"U","MEAN_MOTION":14.96456213,"ECCENTRICITY":0.00011659,"INCLINATION":97.777,"RA_OF_ASC_NODE":312.9769,"ARG_OF_PERICENTER":98.9751,"MEAN_ANOMALY":261.1603,"EPHEMERIS_TYPE":0,"NORAD_CAT_ID":64561,"ELEMENT_SET_NO":999,"REV_AT_EPOCH":5842,"BSTAR":0.00016158042,"MEAN_MOTION_DOT":0.00001775,"MEAN_MOTION_DDOT":0}]}
